TYVAK-0172              
1 46267U 20059C   26068.62538449  .00278441  00000+0  21652-2 0  9997
2 46267  97.7214 311.0561 0003543  67.1132 293.0503 15.70916107303116
STARLINK-11382 [DTC]    
1 62881U 25024C   26067.78570704  .00281789  00000+0  21239-2 0  9990
2 62881  42.9994 186.9765 0002950 251.2408 108.8140 15.70861232 63325
