[{"OBJECT_NAME":"TYVAK-0172","OBJECT_ID":"2020-059C","EPOCH":"2026-03-09T15:00:33.219936","MEAN_MOTION":15.70916107,"ECCENTRICITY":0.0003543,"INCLINATION":97.7214,"RA_OF_ASC_NODE":311.0561,"ARG_OF_PERICENTER":67.1132,"MEAN_ANOMALY":293.0503,"EPHEMERIS_TYPE":0,"CLASSIFICATION_TYPE":"U","NORAD_CAT_ID":46267,"ELEMENT_SET_NO":999,"REV_AT_EPOCH":30311,"BSTAR":0.0021652,"MEAN_MOTION_DOT":0.00278441,"MEAN_MOTION_DDOT":0},{"OBJECT_NAME":"STARLINK-11382 [DTC]","OBJECT_ID":"2025-024C","EPOCH":"2026-03-08T18:51:25.088256","MEAN_MOTION":15.70861232,"ECCENTRICITY":0.00029505,"INCLINATION":42.9994,"RA_OF_ASC_NODE":186.9765,"ARG_OF_PERICENTER":251.2408,"MEAN_ANOMALY":108.814,"EPHEMERIS_TYPE":0,"CLASSIFICATION_TYPE":"U","NORAD_CAT_ID":62881,"ELEMENT_SET_NO":999,"REV_AT_EPOCH":6332,"BSTAR":0.0021239182,"MEAN_MOTION_DOT":0.00281789,"MEAN_MOTION_DDOT":0}]
